{
    "links": {
        "self": "http://www.neowsapp.com/rest/v1/neo/3798970?api_key=iIulBulltgU6a56xZRHN4H3l9WmuAYTsLGpBGhQ2"
    },
    "id": "3798970",
    "neo_reference_id": "3798970",
    "name": "(2018 BM6)",
    "designation": "2018 BM6",
    "nasa_jpl_url": "http://ssd.jpl.nasa.gov/sbdb.cgi?sstr=3798970",
    "absolute_magnitude_h": 26.6,
    "estimated_diameter": {
        "kilometers": {
            "estimated_diameter_min": 0.0127219879,
            "estimated_diameter_max": 0.0284472297
        },
        "meters": {
            "estimated_diameter_min": 12.7219878539,
            "estimated_diameter_max": 28.4472296503
        },
        "miles": {
            "estimated_diameter_min": 0.0079050743,
            "estimated_diameter_max": 0.0176762835
        },
        "feet": {
            "estimated_diameter_min": 41.7388066307,
            "estimated_diameter_max": 93.330808926
        }
    },
    "is_potentially_hazardous_asteroid": false,
    "close_approach_data": [
        {
            "close_approach_date": "2018-01-23",
            "close_approach_date_full": "2018-Jan-23 06:28",
            "epoch_date_close_approach": 1516688880000,
            "relative_velocity": {
                "kilometers_per_second": "5.1812742317",
                "kilometers_per_hour": "18652.5872342894",
                "miles_per_hour": "11589.992328995"
            },
            "miss_distance": {
                "astronomical": "0.0260301883",
                "lunar": "10.1257432487",
                "kilometers": "3894060.725378921",
                "miles": "2419657.1337582698"
            },
            "orbiting_body": "Earth"
        }
    ],
    "orbital_data": {
        "orbit_id": "1",
        "orbit_determination_date": "2018-01-28 10:12:06",
        "first_observation_date": "2018-01-25",
        "last_observation_date": "2018-01-28",
        "data_arc_in_days": 3,
        "observations_used": 20,
        "orbit_uncertainty": "8",
        "minimum_orbit_intersection": ".0224001",
        "jupiter_tisserand_invariant": "4.171",
        "epoch_osculation": "2458144.5",
        "eccentricity": ".3969302797197204",
        "semi_major_axis": "1.660090859152572",
        "inclination": ".9796299294177552",
        "ascending_node_longitude": "63.37974477252607",
        "orbital_period": "781.2611242508962",
        "perihelion_distance": "1.001150530068991",
        "perihelion_argument": "68.78968462761037",
        "aphelion_distance": "2.319031188236154",
        "perihelion_time": "2458149.355258818373",
        "mean_anomaly": "357.7627285930934",
        "mean_motion": ".4607934387432654",
        "equinox": "J2000",
        "orbit_class": {
            "orbit_class_type": "APO",
            "orbit_class_description": "Near-Earth asteroid orbits which cross the Earth’s orbit similar to that of 1862 Apollo",
            "orbit_class_range": "a (semi-major axis) > 1.0 AU; q (perihelion) < 1.017 AU"
        }
    },
    "is_sentry_object": false
}